ONEWEB-0124             
1 47270U 20100N   25258.36143983 -.00000206  00000+0 -60708-3 0  9995
2 47270  87.8905  45.2856 0001651  90.1081 270.0236 13.12444865228528
ONEWEB-0125             
1 47271U 20100P   25258.41496511  .00000191  00000+0  49464-3 0  9997
2 47271  87.8905  45.2376 0001902  89.4898 270.6449 13.12442816228595
ONEWEB-0126             
1 47272U 20100Q   25258.35994738 -.00000252  00000+0 -73645-3 0  9993
2 47272  87.8912  45.2701 0001725  98.9350 261.1974 13.12443160228655
ONEWEB-0127             
1 47273U 20100R   25258.40199230  .00000502  00000+0  13601-2 0  9995
2 47273  87.8906  45.2742 0001663 100.6961 259.4355 13.12443469228682
ONEWEB-0128             
1 47274U 20100S   25258.42469497 -.00000077  00000+0 -24887-3 0  9991
2 47274  87.8899  45.2935 0001448  97.6701 262.4592 13.12442885228707
ONEWEB-0129             
1 47275U 20100T   25258.17490629  .00000445  00000+0  12017-2 0  9993
2 47275  87.8906  45.2881 0002160 129.4019 230.7301 13.12442896228602
ONEWEB-0130             
1 47276U 20100U   25258.12623095 -.00000307  00000+0 -88993-3 0  9990
2 47276  87.8903  45.2946 0001582  97.9814 262.1494 13.12443695228566
ONEWEB-0131             
1 47277U 20100V   25258.35171196 -.00000236  00000+0 -69132-3 0  9991
2 47277  87.8903  45.2795 0001636  95.7885 264.3430 13.12443077228639
ONEWEB-0132             
1 47278U 20100W   25258.45714434  .00000116  00000+0  28834-3 0  9990
2 47278  87.8903  45.2607 0001680  88.3314 271.8007 13.12444387228544
ONEWEB-0133             
1 47279U 20100X   25258.39697772  .00000475  00000+0  12836-2 0  9991
2 47279  87.8890  45.2419 0001517  93.1647 266.9655 13.12444960228690
ONEWEB-0134             
1 47280U 20100Y   25258.36630175 -.00000314  00000+0 -90923-3 0  9992
2 47280  87.8902  45.2353 0001436 102.1279 258.0011 13.12444035228663
ONEWEB-0135             
1 47281U 20100Z   25258.48958994  .00000214  00000+0  55921-3 0  9994
2 47281  87.8904  45.2511 0001243 100.3828 259.7441 13.12441529228703
ONEWEB-0136             
1 47282U 20100AA  25258.12785731 -.00000543  00000+0 -15447-2 0  9998
2 47282  87.8903  45.2919 0001377 108.9598 251.1680 13.12441135228581
ONEWEB-0137             
1 47283U 20100AB  25258.46687461  .00000229  00000+0  59983-3 0  9990
2 47283  87.8898  45.2300 0001853  98.6074 261.5264 13.12445009228534
ONEWEB-0138             
1 47284U 20100AC  25258.36955170 -.00000319  00000+0 -92306-3 0  9993
2 47284  87.8903  45.2594 0001606  99.5182 260.6129 13.12443905228604
ONEWEB-0139             
1 47285U 20100AD  25258.63734981  .00000393  00000+0  10574-2 0  9995
2 47285  87.8896  45.1969 0001677  96.1470 263.9849 13.12442601228711
