[{"OBJECT_NAME":"ONEWEB-0124","OBJECT_ID":"2020-100N","EPOCH":"2025-09-15T08:40:28.401312","MEAN_MOTION":13.12444865,"ECCENTRICITY":0.00016516,"INCLINATION":87.8905,"RA_OF_ASC_NODE":45.2856,"ARG_OF_PERICENTER":90.1081,"MEAN_ANOMALY":270.0236,"EPHEMERIS_TYPE":0,"CLASSIFICATION_TYPE":"U","NORAD_CAT_ID":47270,"ELEMENT_SET_NO":999,"REV_AT_EPOCH":22852,"BSTAR":-0.00060707809,"MEAN_MOTION_DOT":-2.06e-6,"MEAN_MOTION_DDOT":0},{"OBJECT_NAME":"ONEWEB-0125","OBJECT_ID":"2020-100P","EPOCH":"2025-09-15T09:57:32.985504","MEAN_MOTION":13.12442816,"ECCENTRICITY":0.0001902,"INCLINATION":87.8905,"RA_OF_ASC_NODE":45.2376,"ARG_OF_PERICENTER":89.4898,"MEAN_ANOMALY":270.6449,"EPHEMERIS_TYPE":0,"CLASSIFICATION_TYPE":"U","NORAD_CAT_ID":47271,"ELEMENT_SET_NO":999,"REV_AT_EPOCH":22859,"BSTAR":0.00049464483,"MEAN_MOTION_DOT":1.91e-6,"MEAN_MOTION_DDOT":0},{"OBJECT_NAME":"ONEWEB-0126","OBJECT_ID":"2020-100Q","EPOCH":"2025-09-15T08:38:19.453632","MEAN_MOTION":13.1244316,"ECCENTRICITY":0.00017254,"INCLINATION":87.8912,"RA_OF_ASC_NODE":45.2701,"ARG_OF_PERICENTER":98.935,"MEAN_ANOMALY":261.1974,"EPHEMERIS_TYPE":0,"CLASSIFICATION_TYPE":"U","NORAD_CAT_ID":47272,"ELEMENT_SET_NO":999,"REV_AT_EPOCH":22865,"BSTAR":-0.00073645434,"MEAN_MOTION_DOT":-2.52e-6,"MEAN_MOTION_DDOT":0},{"OBJECT_NAME":"ONEWEB-0127","OBJECT_ID":"2020-100R","EPOCH":"2025-09-15T09:38:52.134720","MEAN_MOTION":13.12443469,"ECCENTRICITY":0.00016631,"INCLINATION":87.8906,"RA_OF_ASC_NODE":45.2742,"ARG_OF_PERICENTER":100.6961,"MEAN_ANOMALY":259.4355,"EPHEMERIS_TYPE":0,"CLASSIFICATION_TYPE":"U","NORAD_CAT_ID":47273,"ELEMENT_SET_NO":999,"REV_AT_EPOCH":22868,"BSTAR":0.0013600752,"MEAN_MOTION_DOT":5.02e-6,"MEAN_MOTION_DDOT":0},{"OBJECT_NAME":"ONEWEB-0128","OBJECT_ID":"2020-100S","EPOCH":"2025-09-15T10:11:33.645408","MEAN_MOTION":13.12442885,"ECCENTRICITY":0.00014485,"INCLINATION":87.8899,"RA_OF_ASC_NODE":45.2935,"ARG_OF_PERICENTER":97.6701,"MEAN_ANOMALY":262.4592,"EPHEMERIS_TYPE":0,"CLASSIFICATION_TYPE":"U","NORAD_CAT_ID":47274,"ELEMENT_SET_NO":999,"REV_AT_EPOCH":22870,"BSTAR":-0.0002488739,"MEAN_MOTION_DOT":-7.7e-7,"MEAN_MOTION_DDOT":0},{"OBJECT_NAME":"ONEWEB-0129","OBJECT_ID":"2020-100T","EPOCH":"2025-09-15T04:11:51.903456","MEAN_MOTION":13.12442896,"ECCENTRICITY":0.00021607,"INCLINATION":87.8906,"RA_OF_ASC_NODE":45.2881,"ARG_OF_PERICENTER":129.4019,"MEAN_ANOMALY":230.7301,"EPHEMERIS_TYPE":0,"CLASSIFICATION_TYPE":"U","NORAD_CAT_ID":47275,"ELEMENT_SET_NO":999,"REV_AT_EPOCH":22860,"BSTAR":0.0012016776,"MEAN_MOTION_DOT":4.45e-6,"MEAN_MOTION_DDOT":0},{"OBJECT_NAME":"ONEWEB-0130","OBJECT_ID":"2020-100U","EPOCH":"2025-09-15T03:01:46.354080","MEAN_MOTION":13.12443695,"ECCENTRICITY":0.00015822,"INCLINATION":87.8903,"RA_OF_ASC_NODE":45.2946,"ARG_OF_PERICENTER":97.9814,"MEAN_ANOMALY":262.1494,"EPHEMERIS_TYPE":0,"CLASSIFICATION_TYPE":"U","NORAD_CAT_ID":47276,"ELEMENT_SET_NO":999,"REV_AT_EPOCH":22856,"BSTAR":-0.00088993427,"MEAN_MOTION_DOT":-3.07e-6,"MEAN_MOTION_DDOT":0},{"OBJECT_NAME":"ONEWEB-0131","OBJECT_ID":"2020-100V","EPOCH":"2025-09-15T08:26:27.913344","MEAN_MOTION":13.12443077,"ECCENTRICITY":0.00016367,"INCLINATION":87.8903,"RA_OF_ASC_NODE":45.2795,"ARG_OF_PERICENTER":95.7885,"MEAN_ANOMALY":264.343,"EPHEMERIS_TYPE":0,"CLASSIFICATION_TYPE":"U","NORAD_CAT_ID":47277,"ELEMENT_SET_NO":999,"REV_AT_EPOCH":22863,"BSTAR":-0.00069131881,"MEAN_MOTION_DOT":-2.36e-6,"MEAN_MOTION_DDOT":0},{"OBJECT_NAME":"ONEWEB-0132","OBJECT_ID":"2020-100W","EPOCH":"2025-09-15T10:58:17.270976","MEAN_MOTION":13.12444387,"ECCENTRICITY":0.000168,"INCLINATION":87.8903,"RA_OF_ASC_NODE":45.2607,"ARG_OF_PERICENTER":88.3314,"MEAN_ANOMALY":271.8007,"EPHEMERIS_TYPE":0,"CLASSIFICATION_TYPE":"U","NORAD_CAT_ID":47278,"ELEMENT_SET_NO":999,"REV_AT_EPOCH":22854,"BSTAR":0.00028833714,"MEAN_MOTION_DOT":1.16e-6,"MEAN_MOTION_DDOT":0},{"OBJECT_NAME":"ONEWEB-0133","OBJECT_ID":"2020-100X","EPOCH":"2025-09-15T09:31:38.875008","MEAN_MOTION":13.1244496,"ECCENTRICITY":0.00015179,"INCLINATION":87.889,"RA_OF_ASC_NODE":45.2419,"ARG_OF_PERICENTER":93.1647,"MEAN_ANOMALY":266.9655,"EPHEMERIS_TYPE":0,"CLASSIFICATION_TYPE":"U","NORAD_CAT_ID":47279,"ELEMENT_SET_NO":999,"REV_AT_EPOCH":22869,"BSTAR":0.0012835524,"MEAN_MOTION_DOT":4.75e-6,"MEAN_MOTION_DDOT":0},{"OBJECT_NAME":"ONEWEB-0134","OBJECT_ID":"2020-100Y","EPOCH":"2025-09-15T08:47:28.471200","MEAN_MOTION":13.12444035,"ECCENTRICITY":0.0001436,"INCLINATION":87.8902,"RA_OF_ASC_NODE":45.2353,"ARG_OF_PERICENTER":102.1279,"MEAN_ANOMALY":258.0011,"EPHEMERIS_TYPE":0,"CLASSIFICATION_TYPE":"U","NORAD_CAT_ID":47280,"ELEMENT_SET_NO":999,"REV_AT_EPOCH":22866,"BSTAR":-0.00090923403,"MEAN_MOTION_DOT":-3.14e-6,"MEAN_MOTION_DDOT":0},{"OBJECT_NAME":"ONEWEB-0135","OBJECT_ID":"2020-100Z","EPOCH":"2025-09-15T11:45:00.570816","MEAN_MOTION":13.12441529,"ECCENTRICITY":0.00012437,"INCLINATION":87.8904,"RA_OF_ASC_NODE":45.2511,"ARG_OF_PERICENTER":100.3828,"MEAN_ANOMALY":259.7441,"EPHEMERIS_TYPE":0,"CLASSIFICATION_TYPE":"U","NORAD_CAT_ID":47281,"ELEMENT_SET_NO":999,"REV_AT_EPOCH":22870,"BSTAR":0.00055921374,"MEAN_MOTION_DOT":2.14e-6,"MEAN_MOTION_DDOT":0},{"OBJECT_NAME":"ONEWEB-0136","OBJECT_ID":"2020-100AA","EPOCH":"2025-09-15T03:04:06.871584","MEAN_MOTION":13.12441135,"ECCENTRICITY":0.00013772,"INCLINATION":87.8903,"RA_OF_ASC_NODE":45.2919,"ARG_OF_PERICENTER":108.9598,"MEAN_ANOMALY":251.168,"EPHEMERIS_TYPE":0,"CLASSIFICATION_TYPE":"U","NORAD_CAT_ID":47282,"ELEMENT_SET_NO":999,"REV_AT_EPOCH":22858,"BSTAR":-0.0015446793,"MEAN_MOTION_DOT":-5.43e-6,"MEAN_MOTION_DDOT":0},{"OBJECT_NAME":"ONEWEB-0137","OBJECT_ID":"2020-100AB","EPOCH":"2025-09-15T11:12:17.966304","MEAN_MOTION":13.12445009,"ECCENTRICITY":0.0001853,"INCLINATION":87.8898,"RA_OF_ASC_NODE":45.23,"ARG_OF_PERICENTER":98.6074,"MEAN_ANOMALY":261.5264,"EPHEMERIS_TYPE":0,"CLASSIFICATION_TYPE":"U","NORAD_CAT_ID":47283,"ELEMENT_SET_NO":999,"REV_AT_EPOCH":22853,"BSTAR":0.00059983369,"MEAN_MOTION_DOT":2.29e-6,"MEAN_MOTION_DDOT":0},{"OBJECT_NAME":"ONEWEB-0138","OBJECT_ID":"2020-100AC","EPOCH":"2025-09-15T08:52:09.266880","MEAN_MOTION":13.12443905,"ECCENTRICITY":0.00016065,"INCLINATION":87.8903,"RA_OF_ASC_NODE":45.2594,"ARG_OF_PERICENTER":99.5182,"MEAN_ANOMALY":260.6129,"EPHEMERIS_TYPE":0,"CLASSIFICATION_TYPE":"U","NORAD_CAT_ID":47284,"ELEMENT_SET_NO":999,"REV_AT_EPOCH":22860,"BSTAR":-0.00092305902,"MEAN_MOTION_DOT":-3.19e-6,"MEAN_MOTION_DDOT":0},{"OBJECT_NAME":"ONEWEB-0139","OBJECT_ID":"2020-100AD","EPOCH":"2025-09-15T15:17:47.023584","MEAN_MOTION":13.12442601,"ECCENTRICITY":0.0001677,"INCLINATION":87.8896,"RA_OF_ASC_NODE":45.1969,"ARG_OF_PERICENTER":96.147,"MEAN_ANOMALY":263.9849,"EPHEMERIS_TYPE":0,"CLASSIFICATION_TYPE":"U","NORAD_CAT_ID":47285,"ELEMENT_SET_NO":999,"REV_AT_EPOCH":22871,"BSTAR":0.0010573866,"MEAN_MOTION_DOT":3.93e-6,"MEAN_MOTION_DDOT":0}]
